[{"OBJECT_NAME":"TRANSPORTER-10 OBJECT AG","OBJECT_ID":"2024-043AG","EPOCH":"2026-03-09T22:12:45.387648","MEAN_MOTION":15.30759727,"ECCENTRICITY":0.00093005,"INCLINATION":97.5471,"RA_OF_ASC_NODE":205.7101,"ARG_OF_PERICENTER":226.5958,"MEAN_ANOMALY":133.4509,"EPHEMERIS_TYPE":0,"CLASSIFICATION_TYPE":"U","NORAD_CAT_ID":59128,"ELEMENT_SET_NO":999,"REV_AT_EPOCH":11192,"BSTAR":0.00032170115,"MEAN_MOTION_DOT":9.498e-5,"MEAN_MOTION_DDOT":0},{"OBJECT_NAME":"STARLINK-35963","OBJECT_ID":"2025-268AE","EPOCH":"2026-03-09T03:41:06.953280","MEAN_MOTION":15.27578695,"ECCENTRICITY":0.00014151,"INCLINATION":43.0027,"RA_OF_ASC_NODE":350.4473,"ARG_OF_PERICENTER":252.4104,"MEAN_ANOMALY":107.6593,"EPHEMERIS_TYPE":0,"CLASSIFICATION_TYPE":"U","NORAD_CAT_ID":66585,"ELEMENT_SET_NO":999,"REV_AT_EPOCH":1787,"BSTAR":0.0013187789,"MEAN_MOTION_DOT":0.00036205,"MEAN_MOTION_DDOT":0}]
